start=new Date('2022-09-02T00:00:00.000Z').valueOf();
sats=[{"RCS_SIZE":"LARGE","CLASSIFICATION_TYPE":"U","BSTAR":"0.00004162200000","ECCENTRICITY":"0.00013690","ELEMENT_SET_NO":"999","MEAN_ELEMENT_THEORY":"SGP4","FILE":"3554009","PERIAPSIS":"546.299","MEAN_MOTION_DOT":"0.00000338","OBJECT_ID":"2020-057AR","DECAY_DATE":null,"SITE":"AFETR","REV_AT_EPOCH":"11394","ARG_OF_PERICENTER":"73.0374","TLE_LINE1":"1 46156U 20057AR  22244.86483892  .00000338  00000-0  41622-4 0  9991","OBJECT_NAME":"STARLINK-1545","MEAN_MOTION":"15.06389063","MEAN_ANOMALY":"287.0765","NORAD_CAT_ID":"46156","SEMIMAJOR_AXIS":"6925.382","APOAPSIS":"548.195","INCLINATION":"53.0566","EPOCH":"2022-09-01T20:45:22.082688","PERIOD":"95.593","EPHEMERIS_TYPE":"0","CENTER_NAME":"EARTH","TIME_SYSTEM":"UTC","LAUNCH_DATE":"2020-08-18","GP_ID":"211500777","OBJECT_TYPE":"PAYLOAD","MEAN_MOTION_DDOT":"0.0000000000000","TLE_LINE2":"2 46156  53.0566 304.4286 0001369  73.0374 287.0765 15.06389063113943","COUNTRY_CODE":"US","RA_OF_ASC_NODE":"304.4286","REF_FRAME":"TEME"},{"MEAN_MOTION_DDOT":"0.0000000000000","TLE_LINE2":"2 46157  53.0544 284.4934 0001492  65.2066 294.9078 15.06402657112976","RA_OF_ASC_NODE":"284.4934","REF_FRAME":"TEME","COUNTRY_CODE":"US","LAUNCH_DATE":"2020-08-18","TIME_SYSTEM":"UTC","GP_ID":"211501028","OBJECT_TYPE":"PAYLOAD","APOAPSIS":"548.239","INCLINATION":"53.0544","EPOCH":"2022-09-01T20:26:46.459968","PERIOD":"95.592","CENTER_NAME":"EARTH","EPHEMERIS_TYPE":"0","MEAN_ANOMALY":"294.9078","MEAN_MOTION":"15.06402657","NORAD_CAT_ID":"46157","SEMIMAJOR_AXIS":"6925.340","DECAY_DATE":null,"ARG_OF_PERICENTER":"65.2066","TLE_LINE1":"1 46157U 20057AS  22244.85192662  .00000202  00000-0  32488-4 0  9993","REV_AT_EPOCH":"11297","SITE":"AFETR","OBJECT_NAME":"STARLINK-1587","PERIAPSIS":"546.172","FILE":"3554009","MEAN_ELEMENT_THEORY":"SGP4","MEAN_MOTION_DOT":"0.00000202","OBJECT_ID":"2020-057AS","ELEMENT_SET_NO":"999","RCS_SIZE":"LARGE","CLASSIFICATION_TYPE":"U","ECCENTRICITY":"0.00014920","BSTAR":"0.00003248800000"},{"APOAPSIS":"547.981","EPOCH":"2022-09-01T20:21:27.961056","INCLINATION":"53.0534","PERIOD":"95.592","CENTER_NAME":"EARTH","EPHEMERIS_TYPE":"0","MEAN_ANOMALY":"271.8886","MEAN_MOTION":"15.06400060","NORAD_CAT_ID":"46158","SEMIMAJOR_AXIS":"6925.348","MEAN_MOTION_DDOT":"0.0000000000000","TLE_LINE2":"2 46158  53.0534 284.5083 0001108  88.2230 271.8886 15.06400060114232","RA_OF_ASC_NODE":"284.5083","REF_FRAME":"TEME","COUNTRY_CODE":"US","LAUNCH_DATE":"2020-08-18","TIME_SYSTEM":"UTC","GP_ID":"211501778","OBJECT_TYPE":"PAYLOAD","ELEMENT_SET_NO":"999","RCS_SIZE":"LARGE","CLASSIFICATION_TYPE":"U","BSTAR":"0.00013417000000","ECCENTRICITY":"0.00011080","DECAY_DATE":null,"TLE_LINE1":"1 46158U 20057AT  22244.84824029  .00001718  00000-0  13417-3 0  9995","ARG_OF_PERICENTER":"88.2230","SITE":"AFETR","REV_AT_EPOCH":"11423","OBJECT_NAME":"STARLINK-1589","PERIAPSIS":"546.446","FILE":"3554009","MEAN_ELEMENT_THEORY":"SGP4","OBJECT_ID":"2020-057AT","MEAN_MOTION_DOT":"0.00001718"},{"CLASSIFICATION_TYPE":"U","BSTAR":"-0.00004871300000","ECCENTRICITY":"0.00012910","RCS_SIZE":"LARGE","ELEMENT_SET_NO":"999","PERIAPSIS":"546.345","MEAN_ELEMENT_THEORY":"SGP4","FILE":"3554009","MEAN_MOTION_DOT":"-0.00001007","OBJECT_ID":"2020-057AU","OBJECT_NAME":"STARLINK-1595","DECAY_DATE":null,"TLE_LINE1":"1 46159U 20057AU  22244.62341411 -.00001007  00000-0 -48713-4 0  9992","ARG_OF_PERICENTER":"75.9877","SITE":"AFETR","REV_AT_EPOCH":"11363","NORAD_CAT_ID":"46159","SEMIMAJOR_AXIS":"6925.374","MEAN_ANOMALY":"284.1255","MEAN_MOTION":"15.06391764","PERIOD":"95.593","CENTER_NAME":"EARTH","EPHEMERIS_TYPE":"0","APOAPSIS":"548.133","EPOCH":"2022-09-01T14:57:42.979104","INCLINATION":"53.0562","OBJECT_TYPE":"PAYLOAD","LAUNCH_DATE":"2020-08-18","TIME_SYSTEM":"UTC","GP_ID":"211500027","REF_FRAME":"TEME","RA_OF_ASC_NODE":"325.5151","COUNTRY_CODE":"US","MEAN_MOTION_DDOT":"0.0000000000000","TLE_LINE2":"2 46159  53.0562 325.5151 0001291  75.9877 284.1255 15.06391764113639"},{"OBJECT_TYPE":"PAYLOAD","GP_ID":"211475801","LAUNCH_DATE":"2020-08-18","TIME_SYSTEM":"UTC","RA_OF_ASC_NODE":"305.8425","REF_FRAME":"TEME","COUNTRY_CODE":"US","TLE_LINE2":"2 46160  53.0554 305.8425 0001490  72.6846 287.4306 15.06388360113303","MEAN_MOTION_DDOT":"0.0000000000000","SEMIMAJOR_AXIS":"6925.384","NORAD_CAT_ID":"46160","MEAN_ANOMALY":"287.4306","MEAN_MOTION":"15.06388360","CENTER_NAME":"EARTH","EPHEMERIS_TYPE":"0","PERIOD":"95.593","INCLINATION":"53.0554","EPOCH":"2022-09-01T13:08:54.088800","APOAPSIS":"548.281","MEAN_MOTION_DOT":"0.00000924","OBJECT_ID":"2020-057AV","PERIAPSIS":"546.217","FILE":"3553794","MEAN_ELEMENT_THEORY":"SGP4","OBJECT_NAME":"STARLINK-1598","ARG_OF_PERICENTER":"72.6846","TLE_LINE1":"1 46160U 20057AV  22244.54784825  .00000924  00000-0  80963-4 0  9993","REV_AT_EPOCH":"11330","SITE":"AFETR","DECAY_DATE":null,"ECCENTRICITY":"0.00014900","BSTAR":"0.00008096300000","CLASSIFICATION_TYPE":"U","RCS_SIZE":"LARGE","ELEMENT_SET_NO":"999"},{"ECCENTRICITY":"0.00012510","BSTAR":"0.00008415900000","CLASSIFICATION_TYPE":"U","RCS_SIZE":"LARGE","ELEMENT_SET_NO":"999","MEAN_MOTION_DOT":"0.00000972","OBJECT_ID":"2020-057AW","MEAN_ELEMENT_THEORY":"SGP4","FILE":"3553574","PERIAPSIS":"546.350","OBJECT_NAME":"STARLINK-1600","REV_AT_EPOCH":"11387","SITE":"AFETR","ARG_OF_PERICENTER":"93.4966","TLE_LINE1":"1 46161U 20057AW  22244.39302926  .00000972  00000-0  84159-4 0  9999","DECAY_DATE":null,"SEMIMAJOR_AXIS":"6925.351","NORAD_CAT_ID":"46161","MEAN_MOTION":"15.06399231","MEAN_ANOMALY":"266.6166","EPHEMERIS_TYPE":"0","CENTER_NAME":"EARTH","PERIOD":"95.592","INCLINATION":"53.0553","EPOCH":"2022-09-01T09:25:57.728064","APOAPSIS":"548.082","OBJECT_TYPE":"PAYLOAD","GP_ID":"211464849","TIME_SYSTEM":"UTC","LAUNCH_DATE":"2020-08-18","COUNTRY_CODE":"US","RA_OF_ASC_NODE":"306.5346","REF_FRAME":"TEME","TLE_LINE2":"2 46161  53.0553 306.5346 0001251  93.4966 266.6166 15.06399231113876","MEAN_MOTION_DDOT":"0.0000000000000"},{"MEAN_MOTION_DDOT":"0.0000000000000","TLE_LINE2":"2 46162  53.0549 304.4529 0001275  87.2419 272.8716 15.06396581113956","RA_OF_ASC_NODE":"304.4529","REF_FRAME":"TEME","COUNTRY_CODE":"US","LAUNCH_DATE":"2020-08-18","TIME_SYSTEM":"UTC","GP_ID":"211501279","OBJECT_TYPE":"PAYLOAD","APOAPSIS":"548.107","EPOCH":"2022-09-01T20:40:03.141408","INCLINATION":"53.0549","PERIOD":"95.592","CENTER_NAME":"EARTH","EPHEMERIS_TYPE":"0","MEAN_ANOMALY":"272.8716","MEAN_MOTION":"15.06396581","NORAD_CAT_ID":"46162","SEMIMAJOR_AXIS":"6925.359","DECAY_DATE":null,"ARG_OF_PERICENTER":"87.2419","TLE_LINE1":"1 46162U 20057AX  22244.86114747  .00001119  00000-0  93985-4 0  9995","REV_AT_EPOCH":"11395","SITE":"AFETR","OBJECT_NAME":"STARLINK-1603","PERIAPSIS":"546.341","FILE":"3554009","MEAN_ELEMENT_THEORY":"SGP4","OBJECT_ID":"2020-057AX","MEAN_MOTION_DOT":"0.00001119","ELEMENT_SET_NO":"999","RCS_SIZE":"LARGE","CLASSIFICATION_TYPE":"U","ECCENTRICITY":"0.00012750","BSTAR":"0.00009398500000"},{"OBJECT_NAME":"STARLINK-1610","TLE_LINE1":"1 46163U 20057AY  22244.52757071  .00000213  00000-0  33209-4 0  9999","ARG_OF_PERICENTER":"77.3684","REV_AT_EPOCH":"11292","SITE":"AFETR","DECAY_DATE":null,"MEAN_MOTION_DOT":"0.00000213","OBJECT_ID":"2020-057AY","PERIAPSIS":"546.248","MEAN_ELEMENT_THEORY":"SGP4","FILE":"3553574","ELEMENT_SET_NO":"999","BSTAR":"0.00003320900000","ECCENTRICITY":"0.00014090","CLASSIFICATION_TYPE":"U","RCS_SIZE":"LARGE","RA_OF_ASC_NODE":"285.9303","REF_FRAME":"TEME","COUNTRY_CODE":"US","TLE_LINE2":"2 46163  53.0555 285.9303 0001409  77.3684 282.7462 15.06396655112926","MEAN_MOTION_DDOT":"0.0000000000000","OBJECT_TYPE":"PAYLOAD","GP_ID":"211466344","LAUNCH_DATE":"2020-08-18","TIME_SYSTEM":"UTC","CENTER_NAME":"EARTH","EPHEMERIS_TYPE":"0","PERIOD":"95.592","EPOCH":"2022-09-01T12:39:42.109344","INCLINATION":"53.0555","APOAPSIS":"548.200","SEMIMAJOR_AXIS":"6925.359","NORAD_CAT_ID":"46163","MEAN_ANOMALY":"282.7462","MEAN_MOTION":"15.06396655"},{"DECAY_DATE":null,"ARG_OF_PERICENTER":"70.9033","TLE_LINE1":"1 46164U 20057AZ  22244.52388486  .00002548  00000-0  18986-3 0  9997","REV_AT_EPOCH":"11358","SITE":"AFETR","OBJECT_NAME":"STARLINK-1612","PERIAPSIS":"546.201","FILE":"3553629","MEAN_ELEMENT_THEORY":"SGP4","MEAN_MOTION_DOT":"0.00002548","OBJECT_ID":"2020-057AZ","ELEMENT_SET_NO":"999","RCS_SIZE":"LARGE","CLASSIFICATION_TYPE":"U","ECCENTRICITY":"0.00014430","BSTAR":"0.00018986000000","MEAN_MOTION_DDOT":"0.0000000000000","TLE_LINE2":"2 46164  53.0541 285.9426 0001443  70.9033 289.2112 15.06404340113581","RA_OF_ASC_NODE":"285.9426","REF_FRAME":"TEME","COUNTRY_CODE":"US","LAUNCH_DATE":"2020-08-18","TIME_SYSTEM":"UTC","GP_ID":"211471969","OBJECT_TYPE":"PAYLOAD","APOAPSIS":"548.200","EPOCH":"2022-09-01T12:34:23.651904","INCLINATION":"53.0541","PERIOD":"95.592","CENTER_NAME":"EARTH","EPHEMERIS_TYPE":"0","MEAN_ANOMALY":"289.2112","MEAN_MOTION":"15.06404340","NORAD_CAT_ID":"46164","SEMIMAJOR_AXIS":"6925.335"},{"ELEMENT_SET_NO":"999","CLASSIFICATION_TYPE":"U","BSTAR":"0.00095772000000","ECCENTRICITY":"0.00021300","RCS_SIZE":"LARGE","OBJECT_NAME":"STARLINK-1613","DECAY_DATE":null,"ARG_OF_PERICENTER":"90.2946","TLE_LINE1":"1 46165U 20057BA  22244.47059331  .00017987  00000-0  95772-3 0  9997","SITE":"AFETR","REV_AT_EPOCH":"11246","PERIAPSIS":"518.602","FILE":"3553574","MEAN_ELEMENT_THEORY":"SGP4","OBJECT_ID":"2020-057BA","MEAN_MOTION_DOT":"0.00017987","PERIOD":"95.031","CENTER_NAME":"EARTH","EPHEMERIS_TYPE":"0","APOAPSIS":"521.540","INCLINATION":"53.0531","EPOCH":"2022-09-01T11:17:39.261984","NORAD_CAT_ID":"46165","SEMIMAJOR_AXIS":"6898.206","MEAN_ANOMALY":"269.8291","MEAN_MOTION":"15.15299604","RA_OF_ASC_NODE":"318.5318","REF_FRAME":"TEME","COUNTRY_CODE":"US","MEAN_MOTION_DDOT":"0.0000000000000","TLE_LINE2":"2 46165  53.0531 318.5318 0002130  90.2946 269.8291 15.15299604112469","OBJECT_TYPE":"PAYLOAD","LAUNCH_DATE":"2020-08-18","TIME_SYSTEM":"UTC","GP_ID":"211465349"}];
